[{"OBJECT_NAME":"GLOBAL-2","OBJECT_ID":"2018-099BG","EPOCH":"2026-03-09T16:47:21.463008","MEAN_MOTION":15.08046936,"ECCENTRICITY":0.00074537,"INCLINATION":97.3697,"RA_OF_ASC_NODE":109.328,"ARG_OF_PERICENTER":127.1924,"MEAN_ANOMALY":232.9986,"EPHEMERIS_TYPE":0,"CLASSIFICATION_TYPE":"U","NORAD_CAT_ID":43812,"ELEMENT_SET_NO":999,"REV_AT_EPOCH":39691,"BSTAR":0.0002614533,"MEAN_MOTION_DOT":3.97e-5,"MEAN_MOTION_DDOT":0},{"OBJECT_NAME":"STARLINK-35176","OBJECT_ID":"2025-211L","EPOCH":"2026-03-09T16:44:10.606272","MEAN_MOTION":15.05651401,"ECCENTRICITY":0.00011357,"INCLINATION":97.602,"RA_OF_ASC_NODE":114.0831,"ARG_OF_PERICENTER":119.4323,"MEAN_ANOMALY":240.7017,"EPHEMERIS_TYPE":0,"CLASSIFICATION_TYPE":"U","NORAD_CAT_ID":65662,"ELEMENT_SET_NO":999,"REV_AT_EPOCH":2704,"BSTAR":0.00026575317,"MEAN_MOTION_DOT":3.776e-5,"MEAN_MOTION_DDOT":0}]
