GLOBAL-2                
1 43812U 18099BG  26068.69955396  .00003970  00000+0  26145-3 0  9998
2 43812  97.3697 109.3280 0007454 127.1924 232.9986 15.08046936396919
STARLINK-35176          
1 65662U 25211L   26068.69734498  .00003776  00000+0  26575-3 0  9998
2 65662  97.6020 114.0831 0001136 119.4323 240.7017 15.05651401 27045
